[{"OBJECT_NAME":"STARLINK-31593","OBJECT_ID":"2024-060C","EPOCH":"2026-03-09T12:50:10.991616","MEAN_MOTION":15.27569226,"ECCENTRICITY":0.00010823,"INCLINATION":43.0021,"RA_OF_ASC_NODE":260.3484,"ARG_OF_PERICENTER":292.787,"MEAN_ANOMALY":67.2868,"EPHEMERIS_TYPE":0,"CLASSIFICATION_TYPE":"U","NORAD_CAT_ID":59350,"ELEMENT_SET_NO":999,"REV_AT_EPOCH":11004,"BSTAR":-2.7294237e-5,"MEAN_MOTION_DOT":-1.013e-5,"MEAN_MOTION_DDOT":0},{"OBJECT_NAME":"HERMES-2","OBJECT_ID":"2025-052AK","EPOCH":"2026-03-09T22:17:00.130272","MEAN_MOTION":15.28021069,"ECCENTRICITY":0.00063399,"INCLINATION":97.4004,"RA_OF_ASC_NODE":324.4926,"ARG_OF_PERICENTER":99.416,"MEAN_ANOMALY":260.7796,"EPHEMERIS_TYPE":0,"CLASSIFICATION_TYPE":"U","NORAD_CAT_ID":63243,"ELEMENT_SET_NO":999,"REV_AT_EPOCH":5485,"BSTAR":0.00034839454,"MEAN_MOTION_DOT":9.456e-5,"MEAN_MOTION_DDOT":0}]
