STARLINK-31593          
1 59350U 24060C   26068.53484944 -.00001013  00000+0 -27294-4 0  9991
2 59350  43.0021 260.3484 0001082 292.7870  67.2868 15.27569226110045
HERMES-2                
1 63243U 25052AK  26068.92847372  .00009456  00000+0  34839-3 0  9999
2 63243  97.4004 324.4926 0006340  99.4160 260.7796 15.28021069 54859
